[{"CCSDS_OMM_VERS":"2.0","COMMENT":"GENERATED VIA SPACE-TRACK.ORG API","CREATION_DATE":"2021-03-28T17:29:14","ORIGINATOR":"18 SPCS","OBJECT_NAME":"ONEWEB-0027","OBJECT_ID":"2020-020J","CENTER_NAME":"EARTH","REF_FRAME":"TEME","TIME_SYSTEM":"UTC","MEAN_ELEMENT_THEORY":"SGP4","EPOCH":"2021-03-28T13:27:35.179776","MEAN_MOTION":"13.69296801","ECCENTRICITY":"0.00282600","INCLINATION":"87.9274","RA_OF_ASC_NODE":"25.1236","ARG_OF_PERICENTER":"55.6185","MEAN_ANOMALY":"304.7642","EPHEMERIS_TYPE":"0","CLASSIFICATION_TYPE":"U","NORAD_CAT_ID":"45432","ELEMENT_SET_NO":"999","REV_AT_EPOCH":"5518","BSTAR":"0.00008443500000","MEAN_MOTION_DOT":"0.00000088","MEAN_MOTION_DDOT":"0.0000000000000","SEMIMAJOR_AXIS":"7380.234","PERIOD":"105.163","APOAPSIS":"1022.955","PERIAPSIS":"981.242","OBJECT_TYPE":"PAYLOAD","RCS_SIZE":"MEDIUM","COUNTRY_CODE":"UK","LAUNCH_DATE":"2020-03-21","SITE":"TTMTR","DECAY_DATE":null,"FILE":"2998182","GP_ID":"174356770","TLE_LINE0":"0 ONEWEB-0027","TLE_LINE1":"1 45432U 20020J   21087.56082384  .00000088  00000-0  84435-4 0  9990","TLE_LINE2":"2 45432  87.9274  25.1236 0028260  55.6185 304.7642 13.69296801 55184"},{"CCSDS_OMM_VERS":"2.0","COMMENT":"GENERATED VIA SPACE-TRACK.ORG API","CREATION_DATE":"2021-03-28T22:26:12","ORIGINATOR":"18 SPCS","OBJECT_NAME":"ONEWEB-0027","OBJECT_ID":"2020-020J","CENTER_NAME":"EARTH","REF_FRAME":"TEME","TIME_SYSTEM":"UTC","MEAN_ELEMENT_THEORY":"SGP4","EPOCH":"2021-03-28T13:27:35.179776","MEAN_MOTION":"13.69296801","ECCENTRICITY":"0.00282600","INCLINATION":"87.9274","RA_OF_ASC_NODE":"25.1236","ARG_OF_PERICENTER":"55.6185","MEAN_ANOMALY":"304.7642","EPHEMERIS_TYPE":"0","CLASSIFICATION_TYPE":"U","NORAD_CAT_ID":"45432","ELEMENT_SET_NO":"999","REV_AT_EPOCH":"5518","BSTAR":"0.00008443500000","MEAN_MOTION_DOT":"0.00000088","MEAN_MOTION_DDOT":"0.0000000000000","SEMIMAJOR_AXIS":"7380.234","PERIOD":"105.163","APOAPSIS":"1022.955","PERIAPSIS":"981.242","OBJECT_TYPE":"PAYLOAD","RCS_SIZE":"MEDIUM","COUNTRY_CODE":"UK","LAUNCH_DATE":"2020-03-21","SITE":"TTMTR","DECAY_DATE":null,"FILE":"2998339","GP_ID":"174362563","TLE_LINE0":"0 ONEWEB-0027","TLE_LINE1":"1 45432U 20020J   21087.56082384  .00000088  00000-0  84435-4 0  9990","TLE_LINE2":"2 45432  87.9274  25.1236 0028260  55.6185 304.7642 13.69296801 55184"},{"CCSDS_OMM_VERS":"2.0","COMMENT":"GENERATED VIA SPACE-TRACK.ORG API","CREATION_DATE":"2021-03-29T04:11:08","ORIGINATOR":"18 SPCS","OBJECT_NAME":"ONEWEB-0027","OBJECT_ID":"2020-020J","CENTER_NAME":"EARTH","REF_FRAME":"TEME","TIME_SYSTEM":"UTC","MEAN_ELEMENT_THEORY":"SGP4","EPOCH":"2021-03-28T18:43:15.970944","MEAN_MOTION":"13.69297228","ECCENTRICITY":"0.00282620","INCLINATION":"87.9274","RA_OF_ASC_NODE":"25.0762","ARG_OF_PERICENTER":"55.0206","MEAN_ANOMALY":"305.3603","EPHEMERIS_TYPE":"0","CLASSIFICATION_TYPE":"U","NORAD_CAT_ID":"45432","ELEMENT_SET_NO":"999","REV_AT_EPOCH":"5521","BSTAR":"-0.00003251400000","MEAN_MOTION_DOT":"-0.00000013","MEAN_MOTION_DDOT":"0.0000000000000","SEMIMAJOR_AXIS":"7380.232","PERIOD":"105.163","APOAPSIS":"1022.955","PERIAPSIS":"981.239","OBJECT_TYPE":"PAYLOAD","RCS_SIZE":"MEDIUM","COUNTRY_CODE":"UK","LAUNCH_DATE":"2020-03-21","SITE":"TTMTR","DECAY_DATE":null,"FILE":"2998621","GP_ID":"174386904","TLE_LINE0":"0 ONEWEB-0027","TLE_LINE1":"1 45432U 20020J   21087.78004596 -.00000013  00000-0 -32514-4 0  9994","TLE_LINE2":"2 45432  87.9274  25.0762 0028262  55.0206 305.3603 13.69297228 55219"},{"CCSDS_OMM_VERS":"2.0","COMMENT":"GENERATED VIA SPACE-TRACK.ORG API","CREATION_DATE":"2021-03-29T17:21:22","ORIGINATOR":"18 SPCS","OBJECT_NAME":"ONEWEB-0027","OBJECT_ID":"2020-020J","CENTER_NAME":"EARTH","REF_FRAME":"TEME","TIME_SYSTEM":"UTC","MEAN_ELEMENT_THEORY":"SGP4","EPOCH":"2021-03-29T05:14:37.498848","MEAN_MOTION":"13.69297648","ECCENTRICITY":"0.00282260","INCLINATION":"87.9275","RA_OF_ASC_NODE":"24.9815","ARG_OF_PERICENTER":"53.7918","MEAN_ANOMALY":"306.5847","EPHEMERIS_TYPE":"0","CLASSIFICATION_TYPE":"U","NORAD_CAT_ID":"45432","ELEMENT_SET_NO":"999","REV_AT_EPOCH":"5527","BSTAR":"0.00010139000000","MEAN_MOTION_DOT":"0.00000103","MEAN_MOTION_DDOT":"0.0000000000000","SEMIMAJOR_AXIS":"7380.231","PERIOD":"105.163","APOAPSIS":"1022.927","PERIAPSIS":"981.264","OBJECT_TYPE":"PAYLOAD","RCS_SIZE":"MEDIUM","COUNTRY_CODE":"UK","LAUNCH_DATE":"2020-03-21","SITE":"TTMTR","DECAY_DATE":null,"FILE":"2999519","GP_ID":"174430438","TLE_LINE0":"0 ONEWEB-0027","TLE_LINE1":"1 45432U 20020J   21088.21848957  .00000103  00000-0  10139-3 0  9996","TLE_LINE2":"2 45432  87.9275  24.9815 0028226  53.7918 306.5847 13.69297648 55277"},{"CCSDS_OMM_VERS":"2.0","COMMENT":"GENERATED VIA SPACE-TRACK.ORG API","CREATION_DATE":"2021-03-29T22:26:12","ORIGINATOR":"18 SPCS","OBJECT_NAME":"ONEWEB-0027","OBJECT_ID":"2020-020J","CENTER_NAME":"EARTH","REF_FRAME":"TEME","TIME_SYSTEM":"UTC","MEAN_ELEMENT_THEORY":"SGP4","EPOCH":"2021-03-29T14:00:45.496224","MEAN_MOTION":"13.69297430","ECCENTRICITY":"0.00282170","INCLINATION":"87.9275","RA_OF_ASC_NODE":"24.9026","ARG_OF_PERICENTER":"52.7928","MEAN_ANOMALY":"307.5802","EPHEMERIS_TYPE":"0","CLASSIFICATION_TYPE":"U","NORAD_CAT_ID":"45432","ELEMENT_SET_NO":"999","REV_AT_EPOCH":"5532","BSTAR":"0.00007992700000","MEAN_MOTION_DOT":"0.00000085","MEAN_MOTION_DDOT":"0.0000000000000","SEMIMAJOR_AXIS":"7380.231","PERIOD":"105.163","APOAPSIS":"1022.921","PERIAPSIS":"981.272","OBJECT_TYPE":"PAYLOAD","RCS_SIZE":"MEDIUM","COUNTRY_CODE":"UK","LAUNCH_DATE":"2020-03-21","SITE":"TTMTR","DECAY_DATE":null,"FILE":"2999700","GP_ID":"174436105","TLE_LINE0":"0 ONEWEB-0027","TLE_LINE1":"1 45432U 20020J   21088.58385991  .00000085  00000-0  79927-4 0  9990","TLE_LINE2":"2 45432  87.9275  24.9026 0028217  52.7928 307.5802 13.69297430 55328"},{"CCSDS_OMM_VERS":"2.0","COMMENT":"GENERATED VIA SPACE-TRACK.ORG API","CREATION_DATE":"2021-03-30T04:08:10","ORIGINATOR":"18 SPCS","OBJECT_NAME":"ONEWEB-0027","OBJECT_ID":"2020-020J","CENTER_NAME":"EARTH","REF_FRAME":"TEME","TIME_SYSTEM":"UTC","MEAN_ELEMENT_THEORY":"SGP4","EPOCH":"2021-03-29T17:31:12.713664","MEAN_MOTION":"13.69297123","ECCENTRICITY":"0.00282110","INCLINATION":"87.9276","RA_OF_ASC_NODE":"24.8710","ARG_OF_PERICENTER":"52.3899","MEAN_ANOMALY":"307.9817","EPHEMERIS_TYPE":"0","CLASSIFICATION_TYPE":"U","NORAD_CAT_ID":"45432","ELEMENT_SET_NO":"999","REV_AT_EPOCH":"5534","BSTAR":"0.00004368800000","MEAN_MOTION_DOT":"0.00000053","MEAN_MOTION_DDOT":"0.0000000000000","SEMIMAJOR_AXIS":"7380.233","PERIOD":"105.163","APOAPSIS":"1022.918","PERIAPSIS":"981.277","OBJECT_TYPE":"PAYLOAD","RCS_SIZE":"MEDIUM","COUNTRY_CODE":"UK","LAUNCH_DATE":"2020-03-21","SITE":"TTMTR","DECAY_DATE":null,"FILE":"2999981","GP_ID":"174462584","TLE_LINE0":"0 ONEWEB-0027","TLE_LINE1":"1 45432U 20020J   21088.73000826  .00000053  00000-0  43688-4 0  9998","TLE_LINE2":"2 45432  87.9276  24.8710 0028211  52.3899 307.9817 13.69297123 55346"},{"CCSDS_OMM_VERS":"2.0","COMMENT":"GENERATED VIA SPACE-TRACK.ORG API","CREATION_DATE":"2021-03-30T19:09:24","ORIGINATOR":"18 SPCS","OBJECT_NAME":"ONEWEB-0027","OBJECT_ID":"2020-020J","CENTER_NAME":"EARTH","REF_FRAME":"TEME","TIME_SYSTEM":"UTC","MEAN_ELEMENT_THEORY":"SGP4","EPOCH":"2021-03-30T12:48:42.284736","MEAN_MOTION":"13.69296816","ECCENTRICITY":"0.00281630","INCLINATION":"87.9277","RA_OF_ASC_NODE":"24.6974","ARG_OF_PERICENTER":"50.1512","MEAN_ANOMALY":"310.2120","EPHEMERIS_TYPE":"0","CLASSIFICATION_TYPE":"U","NORAD_CAT_ID":"45432","ELEMENT_SET_NO":"999","REV_AT_EPOCH":"5545","BSTAR":"-0.00000494090000","MEAN_MOTION_DOT":"0.00000011","MEAN_MOTION_DDOT":"0.0000000000000","SEMIMAJOR_AXIS":"7380.234","PERIOD":"105.163","APOAPSIS":"1022.884","PERIAPSIS":"981.314","OBJECT_TYPE":"PAYLOAD","RCS_SIZE":"MEDIUM","COUNTRY_CODE":"UK","LAUNCH_DATE":"2020-03-21","SITE":"TTMTR","DECAY_DATE":null,"FILE":"3000803","GP_ID":"174502745","TLE_LINE0":"0 ONEWEB-0027","TLE_LINE1":"1 45432U 20020J   21089.53382274  .00000011  00000-0 -49409-5 0  9990","TLE_LINE2":"2 45432  87.9277  24.6974 0028163  50.1512 310.2120 13.69296816 55455"},{"CCSDS_OMM_VERS":"2.0","COMMENT":"GENERATED VIA SPACE-TRACK.ORG API","CREATION_DATE":"2021-03-30T22:36:12","ORIGINATOR":"18 SPCS","OBJECT_NAME":"ONEWEB-0027","OBJECT_ID":"2020-020J","CENTER_NAME":"EARTH","REF_FRAME":"TEME","TIME_SYSTEM":"UTC","MEAN_ELEMENT_THEORY":"SGP4","EPOCH":"2021-03-30T18:04:23.052576","MEAN_MOTION":"13.69296980","ECCENTRICITY":"0.00281470","INCLINATION":"87.9277","RA_OF_ASC_NODE":"24.6500","ARG_OF_PERICENTER":"49.5414","MEAN_ANOMALY":"310.8195","EPHEMERIS_TYPE":"0","CLASSIFICATION_TYPE":"U","NORAD_CAT_ID":"45432","ELEMENT_SET_NO":"999","REV_AT_EPOCH":"5548","BSTAR":"0.00005602800000","MEAN_MOTION_DOT":"0.00000064","MEAN_MOTION_DDOT":"0.0000000000000","SEMIMAJOR_AXIS":"7380.233","PERIOD":"105.163","APOAPSIS":"1022.871","PERIAPSIS":"981.325","OBJECT_TYPE":"PAYLOAD","RCS_SIZE":"MEDIUM","COUNTRY_CODE":"UK","LAUNCH_DATE":"2020-03-21","SITE":"TTMTR","DECAY_DATE":null,"FILE":"3001065","GP_ID":"174508836","TLE_LINE0":"0 ONEWEB-0027","TLE_LINE1":"1 45432U 20020J   21089.75304459  .00000064  00000-0  56028-4 0  9994","TLE_LINE2":"2 45432  87.9277  24.6500 0028147  49.5414 310.8195 13.69296980 55488"}]